1 45141U 20008L   22365.51390127 -.00000591  00000-0 -17308-2 0  9999
2 45141  87.8877 287.3443 0001882  74.3111 285.8224 13.10370483142805
1 45141U 20008L   22365.74297442 -.00000587  00000-0 -17174-2 0  9996
2 45141  87.8876 287.2988 0001878  74.2680 285.8654 13.10369873142833
1 45141U 20008L   23001.04840539 -.00000749  00000-0 -21828-2 0  9999
2 45141  87.8877 287.2379 0001867  73.9350 286.1983 13.10369546143732
1 45141U 20008L   23001.50655085 -.00000646  00000-0 -18862-2 0  9990
2 45141  87.8876 287.1470 0001878  73.8701 286.2633 13.10369503142930
1 45141U 20008L   23001.73562412 -.00000658  00000-0 -19228-2 0  9996
2 45141  87.8876 287.1016 0001875  73.8704 286.2630 13.10369177142963
1 45141U 20008L   23002.49920141 -.00000553  00000-0 -16215-2 0  9994
2 45141  87.8875 286.9499 0001868  73.6624 286.4709 13.10368675143068
1 45141U 20008L   23002.49920141 -.00000553  00000-0 -16215-2 0  9994
2 45141  87.8875 286.9499 0001868  73.6624 286.4709 13.10368675143923
1 45141U 20008L   23003.49185319 -.00000427  00000-0 -12587-2 0  9993
2 45141  87.8874 286.7528 0001863  73.7073 286.4259 13.10368065143199
1 45141U 20008L   23004.48450629 -.00000248  00000-0 -74549-3 0  9990
2 45141  87.8873 286.5557 0001852  73.5968 286.5362 13.10367268143322
1 45141U 20008L   23004.48450629 -.00000248  00000-0 -74549-3 0  9990
2 45141  87.8873 286.5557 0001852  73.5968 286.5362 13.10367268144187
1 45141U 20008L   23005.47716023 -.00000051  00000-0 -18317-3 0  9996
2 45141  87.8873 286.3585 0001850  73.1421 286.9910 13.10366562143452
1 45141U 20008L   23006.46981388  .00000117  00000-0  29960-3 0  9991
2 45141  87.8875 286.1613 0001826  72.7302 287.4025 13.10366957143585
1 45141U 20008L   23006.46981388  .00000117  00000-0  29960-3 0  9991
2 45141  87.8875 286.1613 0001826  72.7302 287.4025 13.10366957144441
1 45141U 20008L   23007.15703523  .00000335  00000-0  92217-3 0  9998
2 45141  87.8875 286.0248 0001822  72.6401 287.4926 13.10367462143675
1 45141U 20008L   23007.46246593  .00000509  00000-0  14222-2 0  9993
2 45141  87.8876 285.9642 0001809  72.5375 287.5950 13.10368549143716
1 45141U 20008L   23008.14968623  .00000690  00000-0  19406-2 0  9994
2 45141  87.8878 285.8277 0001802  72.2385 287.8939 13.10369382144663
1 45141U 20008L   23008.45511737  .00000712  00000-0  20034-2 0  9992
2 45141  87.8877 285.7670 0001803  72.1704 287.9620 13.10369782143844
1 45141U 20008L   23009.52412562  .00000673  00000-0  18906-2 0  9998
2 45141  87.8877 285.5547 0001802  71.5587 288.5736 13.10371380143983
1 45141U 20008L   23009.52412562  .00000673  00000-0  18906-2 0  9998
2 45141  87.8877 285.5547 0001802  71.5587 288.5736 13.10371380144849
1 45141U 20008L   23010.51677435  .00000669  00000-0  18810-2 0  9990
2 45141  87.8878 285.3576 0001811  71.5864 288.5460 13.10372494144119
1 45141U 20008L   23011.12763503  .00000651  00000-0  18295-2 0  9998
2 45141  87.8878 285.2363 0001799  71.3616 288.7707 13.10372431145051
1 45141U 20008L   23011.50942126  .00000664  00000-0  18664-2 0  9994
2 45141  87.8879 285.1605 0001808  71.5512 288.5811 13.10373791144242
1 45141U 20008L   23012.50206708  .00000628  00000-0  17614-2 0  9998
2 45141  87.8879 284.9634 0001798  70.9268 289.2054 13.10374337144378
1 45141U 20008L   23012.50206708  .00000628  00000-0  17614-2 0  9998
2 45141  87.8879 284.9634 0001798  70.9268 289.2054 13.10374337145234
1 45141U 20008L   23013.26563954  .00000469  00000-0  13086-2 0  9993
2 45141  87.8879 284.8118 0001800  70.9401 289.1921 13.10375674144475
1 45141U 20008L   23014.10556921  .00000259  00000-0  70550-3 0  9990
2 45141  87.8879 284.6450 0001767  70.4189 289.7129 13.10375978145443
1 45141U 20008L   23015.47999785  .00000051  00000-0  10931-3 0  9997
2 45141  87.8878 284.3721 0001754  70.2375 289.8941 13.10376437144769
1 45141U 20008L   23015.47999785  .00000051  00000-0  10931-3 0  9997
2 45141  87.8878 284.3721 0001754  70.2375 289.8941 13.10376437145625
1 45141U 20008L   23015.78542615  .00000008  00000-0 -12252-4 0  9999
2 45141  87.8880 284.3114 0001762  70.2031 289.9286 13.10376806144804
1 45141U 20008L   23016.47264135 -.00000200  00000-0 -60792-3 0  9990
2 45141  87.8879 284.1750 0001755  70.2370 289.8947 13.10376007144899
1 45141U 20008L   23016.70171226 -.00000187  00000-0 -57227-3 0  9997
2 45141  87.8879 284.1296 0001736  70.0856 290.0458 13.10376591145788
1 45141U 20008L   23016.77806903 -.00000208  00000-0 -63286-3 0  9997
2 45141  87.8880 284.1145 0001740  70.1127 290.0187 13.10377124144938
1 45141U 20008L   23017.23621288 -.00000340  00000-0 -10089-2 0  9999
2 45141  87.8879 284.0235 0001731  69.9924 290.1389 13.10376079144995
1 45141U 20008L   23018.45792875 -.00000507  00000-0 -14875-2 0  9997
2 45141  87.8874 283.7809 0001704  70.2181 289.9130 13.10375394145151
1 45141U 20008L   23018.45792875 -.00000507  00000-0 -14875-2 0  9997
2 45141  87.8874 283.7809 0001704  70.2181 289.9130 13.10375394146017
1 45141U 20008L   23018.76335796 -.00000643  00000-0 -18775-2 0  9990
2 45141  87.8875 283.7201 0001691  69.8041 290.3268 13.10375566145195
1 45141U 20008L   23019.45057405 -.00000559  00000-0 -16375-2 0  9995
2 45141  87.8878 283.5829 0001718  69.6353 290.4959 13.10374777145287
1 45141U 20008L   23019.98507679 -.00000673  00000-0 -19652-2 0  9994
2 45141  87.8875 283.4770 0001695  69.7591 290.3718 13.10373382146214
1 45141U 20008L   23020.44322100 -.00000588  00000-0 -17203-2 0  9996
2 45141  87.8874 283.3861 0001681  69.6844 290.4464 13.10373491145419
1 45141U 20008L   23021.13043864 -.00000523  00000-0 -15338-2 0  9996
2 45141  87.8871 283.2497 0001661  69.7240 290.4065 13.10372733146369
1 45141U 20008L   23022.42851791 -.00000418  00000-0 -12334-2 0  9991
2 45141  87.8868 282.9920 0001617  69.7112 290.4189 13.10371793146532
1 45141U 20008L   23024.10838695 -.00000033  00000-0 -13111-3 0  9994
2 45141  87.8866 282.6582 0001615  70.1227 290.0074 13.10371240146752
1 45141U 20008L   23025.40646786  .00000234  00000-0  63489-3 0  9990
2 45141  87.8864 282.4005 0001608  70.6602 289.4699 13.10371706146068
1 45141U 20008L   23025.40646786  .00000234  00000-0  63489-3 0  9990
2 45141  87.8864 282.4005 0001608  70.6602 289.4699 13.10371706146923
1 45141U 20008L   23025.71189874  .00000319  00000-0  87723-3 0  9995
2 45141  87.8863 282.3398 0001600  70.3916 289.7384 13.10371563146108
1 45141U 20008L   23026.09368716  .00000298  00000-0  81884-3 0  9999
2 45141  87.8863 282.2638 0001603  69.9656 290.1643 13.10372226146158
1 45141U 20008L   23026.78090550  .00000570  00000-0  15969-2 0  9996
2 45141  87.8865 282.1273 0001606  70.4332 289.6969 13.10372512147103
1 45141U 20008L   23027.23905165  .00000490  00000-0  13661-2 0  9992
2 45141  87.8865 282.0362 0001599  70.5233 289.6067 13.10372937146304
1 45141U 20008L   23027.92626988  .00000574  00000-0  16079-2 0  9990
2 45141  87.8865 281.8995 0001572  70.7255 289.4043 13.10373020146395
1 45141U 20008L   23028.07898472  .00000619  00000-0  17381-2 0  9993
2 45141  87.8864 281.8692 0001573  70.5874 289.5423 13.10373421147270
1 45141U 20008L   23028.23169979  .00000648  00000-0  18209-2 0  9996
2 45141  87.8864 281.8389 0001572  70.4985 289.6312 13.10373445146435
1 45141U 20008L   23028.91891697  .00000655  00000-0  18392-2 0  9991
2 45141  87.8864 281.7024 0001555  70.3497 289.7798 13.10374175146528
1 45141U 20008L   23029.22434647  .00000737  00000-0  20742-2 0  9997
2 45141  87.8863 281.6418 0001567  69.7645 290.3650 13.10374554147429
1 45141U 20008L   23029.75884756  .00000760  00000-0  21403-2 0  9996
2 45141  87.8864 281.5356 0001564  69.9120 290.2175 13.10375587146637
1 45141U 20008L   23030.21699187  .00000715  00000-0  20131-2 0  9998
2 45141  87.8863 281.4446 0001560  69.8899 290.2396 13.10375688146696
1 45141U 20008L   23031.13327890  .00000622  00000-0  17443-2 0  9998
2 45141  87.8863 281.2625 0001555  70.2610 289.8685 13.10376558146810
1 45141U 20008L   23031.13327890  .00000622  00000-0  17443-2 0  9998
2 45141  87.8863 281.2625 0001555  70.2610 289.8685 13.10376558147675
